[
  {
    "OBJECT_NAME": "STARLINK-11545 [DTC]",
    "OBJECT_ID": "25032M",
    "EPOCH": "2025-11-11T00:47:06.939744",
    "MEAN_MOTION": 15.70932159,
    "ECCENTRICITY": 0.0001877,
    "INCLINATION": 42.9993,
    "RA_OF_ASC_NODE": 190.4282,
    "ARG_OF_PERICENTER": 289.1345,
    "MEAN_ANOMALY": 70.9319,
    "EPHEMERIS_TYPE": 0,
    "CLASSIFICATION_TYPE": "U",
    "NORAD_CAT_ID": 63016,
    "ELEMENT_SET_NO": 999,
    "REV_AT_EPOCH": 4356,
    "BSTAR": 0.0026408,
    "MEAN_MOTION_DOT": 0.00354634,
    "MEAN_MOTION_DDOT": 0.0,
    "TLE_LINE1": "1 63016U 25032M   25315.03271921  .00354634  00000+0  26408-2 0  9995",
    "TLE_LINE2": "2 63016  42.9993 190.4282 0001877 289.1345  70.9319 15.70932159 43564",
    "COMMENT": "Grouped by shell and plane from TLE"
  },
  {
    "OBJECT_NAME": "STARLINK-11400 [DTC]",
    "OBJECT_ID": "25032N",
    "EPOCH": "2025-11-10T23:53:46.698432",
    "MEAN_MOTION": 15.70894914,
    "ECCENTRICITY": 0.0001637,
    "INCLINATION": 42.999,
    "RA_OF_ASC_NODE": 191.0254,
    "ARG_OF_PERICENTER": 281.1717,
    "MEAN_ANOMALY": 78.8967,
    "EPHEMERIS_TYPE": 0,
    "CLASSIFICATION_TYPE": "U",
    "NORAD_CAT_ID": 63017,
    "ELEMENT_SET_NO": 999,
    "REV_AT_EPOCH": 4354,
    "BSTAR": 0.00078999,
    "MEAN_MOTION_DOT": 0.00102412,
    "MEAN_MOTION_DDOT": 0.0,
    "TLE_LINE1": "1 63017U 25032N   25314.99567938  .00102412  00000+0  78999-3 0  9994",
    "TLE_LINE2": "2 63017  42.9990 191.0254 0001637 281.1717  78.8967 15.70894914 43547",
    "COMMENT": "Grouped by shell and plane from TLE"
  }
]